NOAA 15                 
1 25338U 98030A   23067.55979457  .00000534  00000+0  24075-3 0  9992
2 25338  98.6183  98.2827 0009416 244.3163 115.7046 14.26261446290918
DMSP 5D-3 F15 (USA 147) 
1 25991U 99067A   23067.51387233  .00000557  00000+0  30194-3 0  9993
2 25991  99.0704  68.8444 0010494 155.2915   6.3914 14.16674012201173
DMSP 5D-3 F16 (USA 172) 
1 28054U 03048A   23067.46481806  .00000459  00000+0  26692-3 0  9994
2 28054  99.0096  64.9065 0006365 295.9037 217.6391 14.13765217   320
NOAA 18                 
1 28654U 05018A   23067.43841517  .00000481  00000+0  28254-3 0  9996
2 28654  98.9178 142.2919 0013307 306.9647  53.0306 14.12880868917343
METEOSAT-9 (MSG-2)      
1 28912U 05049B   23067.07198424  .00000133  00000+0  00000+0 0  9998
2 28912   6.6153  64.4963 0002100 184.3719 348.2650  1.00269128 63076
EWS-G1 (GOES 13)        
1 29155U 06018A   23066.57315424  .00000039  00000+0  00000+0 0  9995
2 29155   1.2656  92.2968 0003195 180.7542 159.5567  1.00274496 31369
DMSP 5D-3 F17 (USA 191) 
1 29522U 06050A   23067.55670385  .00000550  00000+0  31094-3 0  9997
2 29522  98.7597  82.5433 0009117 224.6375 135.4064 14.14201527843239
FENGYUN 3A              
1 32958U 08026A   23067.43942605  .00000513  00000+0  26676-3 0  9992
2 32958  98.5429  24.8092 0008536 348.0514  12.0459 14.18820530765762
FENGYUN 2E              
1 33463U 08066A   23066.50647316 -.00000199  00000+0  00000+0 0  9996
2 33463   6.4913  63.6847 0002199 309.7097  60.5237  1.00271757 52082
NOAA 19                 
1 33591U 09005A   23067.54122371  .00000479  00000+0  28307-3 0  9990
2 33591  99.1145 111.7978 0014270 162.6368 197.5294 14.12704085725735
GOES 14                 
1 35491U 09033A   23066.61115809 -.00000070  00000+0  00000+0 0  9991
2 35491   0.0956 130.1074 0004792 268.6158 238.4510  1.00276152 50101
METEOR-M 1              
1 35865U 09049A   23067.40017342  .00000551  00000+0  26623-3 0  9990
2 35865  98.5679  34.8735 0002508 151.5834 208.5481 14.22442969699202
DMSP 5D-3 F18 (USA 210) 
1 35951U 09057A   23067.13792314  .00000704  00000+0  39520-3 0  9994
2 35951  98.7577  45.4852 0012191  58.8628 301.3739 14.13681644690365
GOES 15                 
1 36411U 10008A   23067.03746698  .00000053  00000+0  00000+0 0  9991
2 36411   0.1102  94.4080 0001557  58.6069 258.0844  1.00279834 47655
COMS 1                  
1 36744U 10032A   23066.84015154 -.00000343  00000+0  00000+0 0  9994
2 36744   1.7290  90.4777 0001005 258.5037 246.9103  1.00272121 39086
FENGYUN 3B              
1 37214U 10059A   23067.44967104  .00000214  00000+0  13613-3 0  9998
2 37214  99.0908  83.0826 0021700 332.5714  27.4324 14.14306413638271
SUOMI NPP               
1 37849U 11061A   23067.46261133  .00000287  00000+0  15729-3 0  9997
2 37849  98.7606   7.6868 0000835 100.3370  36.2987 14.19519207588649
FENGYUN 2F              
1 38049U 12002A   23067.53938319 -.00000352  00000+0  00000+0 0  9997
2 38049   4.4375  77.5559 0000498 220.4624 174.2658  1.00272881 40891
METEOSAT-10 (MSG-3)     
1 38552U 12035B   23066.56225865  .00000017  00000+0  00000+0 0  9996
2 38552   1.9712  52.8640 0000787 239.7937  81.1019  1.00130189 38848
METOP-B                 
1 38771U 12049A   23067.44924894  .00000392  00000+0  19931-3 0  9993
2 38771  98.6919 128.4495 0000909  72.5677  24.3828 14.21499601543236
FENGYUN 3C              
1 39260U 13052A   23067.19881939  .00000259  00000+0  15218-3 0  9992
2 39260  98.4364  86.6731 0010250 230.9101 129.1165 14.16000804489247
METEOR-M 2              
1 40069U 14037A   23067.49340016  .00000197  00000+0  11061-3 0  9997
2 40069  98.4265  78.1319 0004645 276.8966  83.1692 14.20752775449351
HIMAWARI-8              
1 40267U 14060A   23066.84433182 -.00000275  00000+0  00000+0 0  9993
2 40267   0.0237 237.7994 0000757 123.8187 248.2578  1.00269934 30758
FENGYUN 2G              
1 40367U 14090A   23067.09702149 -.00000300  00000+0  00000+0 0  9996
2 40367   2.5966  86.7420 0000564 165.4608  47.8942  1.00278432 30039
METEOSAT-11 (MSG-4)     
1 40732U 15034A   23066.40170873 -.00000002  00000+0  00000+0 0  9997
2 40732   0.4780  18.1370 0000349  25.0005 266.6763  1.00271236 28003
ELEKTRO-L 2             
1 41105U 15074A   23066.41462177 -.00000114  00000+0  00000+0 0  9992
2 41105   3.6487  85.0452 0001412 188.4207  26.1633  1.00270969 26501
HIMAWARI-9              
1 41836U 16064A   23067.56507615 -.00000273  00000+0  00000+0 0  9993
2 41836   0.0204 146.2663 0001494 231.6646 132.2560  1.00268449 23305
GOES 16                 
1 41866U 16071A   23067.49186847 -.00000246  00000+0  00000+0 0  9996
2 41866   0.0890 286.2183 0000672  77.3387 264.2352  1.00272061 23103
FENGYUN 4A              
1 41882U 16077A   23067.54632913 -.00000327  00000+0  00000+0 0  9996
2 41882   0.1894  83.0293 0004769 346.9014  37.3378  1.00268221 22989
CYGFM05                 
1 41884U 16078A   23067.11148196  .00012875  00000+0  60498-3 0  9998
2 41884  34.9576 357.5216 0015737 292.1169  67.7873 15.18696553344955
CYGFM04                 
1 41885U 16078B   23067.06766822  .00012460  00000+0  57608-3 0  9994
2 41885  34.9504 345.4985 0014103 309.2447  50.7014 15.19281614345062
CYGFM02                 
1 41886U 16078C   23067.18309451  .00011559  00000+0  53377-3 0  9996
2 41886  34.9597 347.0694 0014791 304.0933  55.8376 15.19325121345076
CYGFM01                 
1 41887U 16078D   23066.22764256  .00012688  00000+0  60012-3 0  9997
2 41887  34.9541   5.8740 0016192 283.1790  76.7116 15.18464063344668
CYGFM08                 
1 41888U 16078E   23067.11345991  .00012731  00000+0  59290-3 0  9993
2 41888  34.9517 351.6965 0015258 303.7662  56.1597 15.19011435344973
CYGFM07                 
1 41890U 16078G   23067.08926753  .00012820  00000+0  59034-3 0  9998
2 41890  34.9536 345.1440 0013675 307.5447  52.4023 15.19421159345069
CYGFM03                 
1 41891U 16078H   23066.16994676  .00012738  00000+0  58970-3 0  9992
2 41891  34.9567 351.4623 0013257 297.9714  61.9657 15.19244760344767
FENGYUN 3D              
1 43010U 17072A   23067.45677876  .00000302  00000+0  16551-3 0  9998
2 43010  98.8490  16.1466 0000677 209.7617 150.3522 14.19157645275212
NOAA 20                 
1 43013U 17073A   23067.54052792  .00000303  00000+0  16475-3 0  9992
2 43013  98.7443   7.2920 0001388  67.4237 292.7086 14.19536142274695
GOES 17                 
1 43226U 18022A   23067.50691389 -.00000088  00000+0  00000+0 0  9994
2 43226   0.0079  77.3513 0001525 308.1373 218.2085  1.00270933 18436
FENGYUN 2H              
1 43491U 18050A   23067.48565480 -.00000124  00000+0  00000+0 0  9999
2 43491   1.8172  92.6095 0001795  57.7811 269.5363  1.00268953 17516
METOP-C                 
1 43689U 18087A   23067.39655285  .00000382  00000+0  19436-3 0  9993
2 43689  98.6964 128.4832 0002965  16.9925 343.1351 14.21503161224806
GEO-KOMPSAT-2A          
1 43823U 18100A   23067.01672175 -.00000343  00000+0  00000+0 0  9996
2 43823   0.0096  78.7491 0001698 330.4364 250.5484  1.00266297 15658
METEOR-M2 2             
1 44387U 19038A   23067.46668656  .00000169  00000+0  93475-4 0  9999
2 44387  98.7616  31.6396 0000677 182.2114 177.9060 14.23757989190973
FENGYUN 3E              
1 49008U 21062A   23067.22980114  .00000110  00000+0  72550-4 0  9991
2 49008  98.7211  70.1297 0001227 340.6571  19.4560 14.19765140 86743
GOES 18                 
1 51850U 22021A   23067.25697950  .00000098  00000+0  00000+0 0  9992
2 51850   0.0199 335.5932 0000394   3.1247 142.4688  1.00272570  3801
NOAA 21 (JPSS-2)        
1 54234U 22150A   23067.55783202  .00000395  00000+0  20775-3 0  9998
2 54234  98.7082   7.1309 0001162  76.2410 283.8895 14.19557386 16777
METEOSAT-12             
1 54743U 22170C   23066.40257677 -.00000032  00000+0  00000+0 0  9994
2 54743   0.8121 301.5835 0002641 101.3582 263.2738  1.00274148   968
